{
  "type": "FeatureCollection",
  "comment": "Chicago metro zones — display partition + corridor overlays. Source of truth for extraction (buffered at extract time) and viz overlay. lon/lat WGS84.",
  "features": [
    { "type": "Feature",
      "properties": { "name": "ohare", "label": "O'Hare", "kind": "district", "status": "import-pending" },
      "geometry": { "type": "Polygon", "coordinates": [[[-88.02,41.93],[-87.84,41.93],[-87.84,42.09],[-88.02,42.09],[-88.02,41.93]]] } },
    { "type": "Feature",
      "properties": { "name": "nw", "label": "NW Side", "kind": "district", "status": "import-pending" },
      "geometry": { "type": "Polygon", "coordinates": [[[-87.84,41.93],[-87.75,41.93],[-87.75,42.09],[-87.84,42.09],[-87.84,41.93]]] } },
    { "type": "Feature",
      "properties": { "name": "north-lakefront", "label": "North Lakefront", "kind": "district", "status": "import-pending" },
      "geometry": { "type": "Polygon", "coordinates": [[[-87.75,41.93],[-87.62,41.93],[-87.62,42.09],[-87.75,42.09],[-87.75,41.93]]] } },
    { "type": "Feature",
      "properties": { "name": "west", "label": "West Side / Oak Park", "kind": "district", "status": "import-pending" },
      "geometry": { "type": "Polygon", "coordinates": [[[-87.84,41.85],[-87.68,41.85],[-87.68,41.93],[-87.84,41.93],[-87.84,41.85]]] } },
    { "type": "Feature",
      "properties": { "name": "loop", "label": "Loop / CBD", "kind": "district", "status": "import-pending" },
      "geometry": { "type": "Polygon", "coordinates": [[[-87.68,41.85],[-87.61,41.85],[-87.61,41.93],[-87.68,41.93],[-87.68,41.85]]] } },
    { "type": "Feature",
      "properties": { "name": "far-west", "label": "Western Suburbs", "kind": "district", "status": "import-pending" },
      "geometry": { "type": "Polygon", "coordinates": [[[-88.02,41.72],[-87.84,41.72],[-87.84,41.93],[-88.02,41.93],[-88.02,41.72]]] } },
    { "type": "Feature",
      "properties": { "name": "sw", "label": "SW Side", "kind": "district", "status": "import-pending" },
      "geometry": { "type": "Polygon", "coordinates": [[[-87.84,41.72],[-87.75,41.72],[-87.75,41.85],[-87.84,41.85],[-87.84,41.72]]] } },
    { "type": "Feature",
      "properties": { "name": "south", "label": "South Side / Hyde Park", "kind": "district", "status": "import-pending" },
      "geometry": { "type": "Polygon", "coordinates": [[[-87.75,41.72],[-87.55,41.72],[-87.55,41.85],[-87.75,41.85],[-87.75,41.72]]] } },
    { "type": "Feature",
      "properties": { "name": "kennedy", "label": "Kennedy Corridor", "kind": "corridor", "status": "import-pending",
                      "notes": "I-90/94 O'Hare → Circle Interchange. Calibration anchor: TGSIM filmed on I-90/94; IDOT AADT screenlines." },
      "geometry": { "type": "Polygon", "coordinates": [[
        [-87.925,41.975],[-87.845,41.928],[-87.770,41.903],[-87.710,41.878],[-87.670,41.862],
        [-87.640,41.895],[-87.690,41.912],[-87.755,41.938],[-87.825,41.963],[-87.895,42.000],
        [-87.925,41.975]]] } }
  ]
}
